ORBCOMM FM20 [+]        
1 25416U 98046D   23245.50183411  .00001038  00000+0  41568-3 0  9992
2 25416  44.9962  29.3001 0001398 182.8126 177.2713 14.34349068310327
ORBCOMM FM16 [-]        
1 25417U 98046E   23245.53253326  .00001262  00000+0  48802-3 0  9996
2 25417  44.9963  26.4840 0004373 238.4411 121.6009 14.35000443310243
ORBCOMM FM15 [-]        
1 25418U 98046F   23245.44488230  .00001366  00000+0  52692-3 0  9998
2 25418  44.9995  30.4076 0003774 239.3068 120.7408 14.34767960310243
ORBCOMM FM14 [-]        
1 25419U 98046G   23245.50133663  .00001463  00000+0  55957-3 0  9998
2 25419  44.9984  29.5227 0003000 221.2673 185.8266 14.34865392310201
ORBCOMM FM13 [+]        
1 25420U 98046H   23245.43118138  .00001235  00000+0  48489-3 0  9991
2 25420  44.9998  33.5279 0005075 228.7239 131.3171 14.34359744309279
ORBCOMM FM21 [-]        
1 25475U 98053A   23245.37994875  .00001131  00000+0  44805-3 0  9995
2 25475  45.0091 117.8444 0000362  10.3952 349.6902 14.34383478303288
ORBCOMM FM22 [-]        
1 25476U 98053B   23245.71077644  .00001104  00000+0  43563-3 0  9990
2 25476  45.0087 114.4009 0001387 178.1511 181.9342 14.34726751303679
ORBCOMM FM23 [-]        
1 25477U 98053C   23245.33924773  .00001127  00000+0  44686-3 0  9995
2 25477  45.0092 120.4697 0000626 172.3696 187.7161 14.34357510303420
